[
  {
    "OBJECT_NAME": "STARLINK-30253",
    "OBJECT_ID": "23115E",
    "EPOCH": "2025-11-11T06:58:52.944384",
    "MEAN_MOTION": 15.02541563,
    "ECCENTRICITY": 0.0001182,
    "INCLINATION": 43.003,
    "RA_OF_ASC_NODE": 288.1202,
    "ARG_OF_PERICENTER": 268.8477,
    "MEAN_ANOMALY": 91.2229,
    "EPHEMERIS_TYPE": 0,
    "CLASSIFICATION_TYPE": "U",
    "NORAD_CAT_ID": 57525,
    "ELEMENT_SET_NO": 999,
    "REV_AT_EPOCH": 12450,
    "BSTAR": 6.926500000000001e-05,
    "MEAN_MOTION_DOT": 7.32e-06,
    "MEAN_MOTION_DDOT": 0.0,
    "TLE_LINE1": "1 57525U 23115E   25315.29089056  .00000732  00000+0  69265-4 0  9994",
    "TLE_LINE2": "2 57525  43.0030 288.1202 0001182 268.8477  91.2229 15.02541563124502",
    "COMMENT": "Grouped by shell and plane from TLE"
  },
  {
    "OBJECT_NAME": "STARLINK-30250",
    "OBJECT_ID": "23115G",
    "EPOCH": "2025-11-11T06:54:05.531328",
    "MEAN_MOTION": 15.0254015,
    "ECCENTRICITY": 0.0001139,
    "INCLINATION": 43.004,
    "RA_OF_ASC_NODE": 288.0911,
    "ARG_OF_PERICENTER": 270.4157,
    "MEAN_ANOMALY": 89.6554,
    "EPHEMERIS_TYPE": 0,
    "CLASSIFICATION_TYPE": "U",
    "NORAD_CAT_ID": 57527,
    "ELEMENT_SET_NO": 999,
    "REV_AT_EPOCH": 12540,
    "BSTAR": 0.00017266000000000002,
    "MEAN_MOTION_DOT": 2.13e-05,
    "MEAN_MOTION_DDOT": 0.0,
    "TLE_LINE1": "1 57527U 23115G   25315.28756402  .00002130  00000+0  17266-3 0  9998",
    "TLE_LINE2": "2 57527  43.0040 288.0911 0001139 270.4157  89.6554 15.02540150125400",
    "COMMENT": "Grouped by shell and plane from TLE"
  },
  {
    "OBJECT_NAME": "STARLINK-30269",
    "OBJECT_ID": "23115H",
    "EPOCH": "2025-11-11T04:59:10.660992",
    "MEAN_MOTION": 15.02554064,
    "ECCENTRICITY": 0.0001187,
    "INCLINATION": 43.0022,
    "RA_OF_ASC_NODE": 288.3789,
    "ARG_OF_PERICENTER": 270.1133,
    "MEAN_ANOMALY": 89.9573,
    "EPHEMERIS_TYPE": 0,
    "CLASSIFICATION_TYPE": "U",
    "NORAD_CAT_ID": 57528,
    "ELEMENT_SET_NO": 999,
    "REV_AT_EPOCH": 12449,
    "BSTAR": 0.00026765000000000003,
    "MEAN_MOTION_DOT": 3.415e-05,
    "MEAN_MOTION_DDOT": 0.0,
    "TLE_LINE1": "1 57528U 23115H   25315.20776228  .00003415  00000+0  26765-3 0  9990",
    "TLE_LINE2": "2 57528  43.0022 288.3789 0001187 270.1133  89.9573 15.02554064124492",
    "COMMENT": "Grouped by shell and plane from TLE"
  },
  {
    "OBJECT_NAME": "STARLINK-30266",
    "OBJECT_ID": "23115J",
    "EPOCH": "2025-11-11T04:44:48.242976",
    "MEAN_MOTION": 15.0253928,
    "ECCENTRICITY": 0.0001112,
    "INCLINATION": 43.0042,
    "RA_OF_ASC_NODE": 288.2874,
    "ARG_OF_PERICENTER": 269.8159,
    "MEAN_ANOMALY": 90.2556,
    "EPHEMERIS_TYPE": 0,
    "CLASSIFICATION_TYPE": "U",
    "NORAD_CAT_ID": 57529,
    "ELEMENT_SET_NO": 999,
    "REV_AT_EPOCH": 12449,
    "BSTAR": 9.0003e-05,
    "MEAN_MOTION_DOT": 1.012e-05,
    "MEAN_MOTION_DDOT": 0.0,
    "TLE_LINE1": "1 57529U 23115J   25315.19778059  .00001012  00000+0  90003-4 0  9991",
    "TLE_LINE2": "2 57529  43.0042 288.2874 0001112 269.8159  90.2556 15.02539280124499",
    "COMMENT": "Grouped by shell and plane from TLE"
  },
  {
    "OBJECT_NAME": "STARLINK-30270",
    "OBJECT_ID": "23115K",
    "EPOCH": "2025-11-11T04:54:23.832864",
    "MEAN_MOTION": 15.02540953,
    "ECCENTRICITY": 9.96e-05,
    "INCLINATION": 43.0035,
    "RA_OF_ASC_NODE": 288.3484,
    "ARG_OF_PERICENTER": 276.4969,
    "MEAN_ANOMALY": 83.576,
    "EPHEMERIS_TYPE": 0,
    "CLASSIFICATION_TYPE": "U",
    "NORAD_CAT_ID": 57530,
    "ELEMENT_SET_NO": 999,
    "REV_AT_EPOCH": 12449,
    "BSTAR": 0.00018151000000000002,
    "MEAN_MOTION_DOT": 2.249e-05,
    "MEAN_MOTION_DDOT": 0.0,
    "TLE_LINE1": "1 57530U 23115K   25315.20444251  .00002249  00000+0  18151-3 0  9995",
    "TLE_LINE2": "2 57530  43.0035 288.3484 0000996 276.4969  83.5760 15.02540953124494",
    "COMMENT": "Grouped by shell and plane from TLE"
  },
  {
    "OBJECT_NAME": "STARLINK-30268",
    "OBJECT_ID": "23115L",
    "EPOCH": "2025-11-11T06:49:18.639264",
    "MEAN_MOTION": 15.02534216,
    "ECCENTRICITY": 9.04e-05,
    "INCLINATION": 43.0039,
    "RA_OF_ASC_NODE": 288.0865,
    "ARG_OF_PERICENTER": 265.2729,
    "MEAN_ANOMALY": 94.801,
    "EPHEMERIS_TYPE": 0,
    "CLASSIFICATION_TYPE": "U",
    "NORAD_CAT_ID": 57531,
    "ELEMENT_SET_NO": 999,
    "REV_AT_EPOCH": 12450,
    "BSTAR": 6.7733e-05,
    "MEAN_MOTION_DOT": 7.11e-06,
    "MEAN_MOTION_DDOT": 0.0,
    "TLE_LINE1": "1 57531U 23115L   25315.28424351  .00000711  00000+0  67733-4 0  9996",
    "TLE_LINE2": "2 57531  43.0039 288.0865 0000904 265.2729  94.8010 15.02534216124508",
    "COMMENT": "Grouped by shell and plane from TLE"
  },
  {
    "OBJECT_NAME": "STARLINK-30251",
    "OBJECT_ID": "23115M",
    "EPOCH": "2025-11-11T00:18:24.311232",
    "MEAN_MOTION": 15.02522297,
    "ECCENTRICITY": 0.0001131,
    "INCLINATION": 43.0037,
    "RA_OF_ASC_NODE": 289.4734,
    "ARG_OF_PERICENTER": 255.7969,
    "MEAN_ANOMALY": 104.2748,
    "EPHEMERIS_TYPE": 0,
    "CLASSIFICATION_TYPE": "U",
    "NORAD_CAT_ID": 57532,
    "ELEMENT_SET_NO": 999,
    "REV_AT_EPOCH": 12446,
    "BSTAR": 0.00020406,
    "MEAN_MOTION_DOT": 2.553e-05,
    "MEAN_MOTION_DDOT": 0.0,
    "TLE_LINE1": "1 57532U 23115M   25315.01278138  .00002553  00000+0  20406-3 0  9999",
    "TLE_LINE2": "2 57532  43.0037 289.4734 0001131 255.7969 104.2748 15.02522297124465",
    "COMMENT": "Grouped by shell and plane from TLE"
  },
  {
    "OBJECT_NAME": "STARLINK-30579",
    "OBJECT_ID": "23158L",
    "EPOCH": "2025-11-11T07:08:29.151168",
    "MEAN_MOTION": 15.02535057,
    "ECCENTRICITY": 0.0001354,
    "INCLINATION": 43.0044,
    "RA_OF_ASC_NODE": 288.1986,
    "ARG_OF_PERICENTER": 263.5874,
    "MEAN_ANOMALY": 96.4814,
    "EPHEMERIS_TYPE": 0,
    "CLASSIFICATION_TYPE": "U",
    "NORAD_CAT_ID": 58061,
    "ELEMENT_SET_NO": 999,
    "REV_AT_EPOCH": 11601,
    "BSTAR": 7.2802e-05,
    "MEAN_MOTION_DOT": 7.8e-06,
    "MEAN_MOTION_DDOT": 0.0,
    "TLE_LINE1": "1 58061U 23158L   25315.29755962  .00000780  00000+0  72802-4 0  9997",
    "TLE_LINE2": "2 58061  43.0044 288.1986 0001354 263.5874  96.4814 15.02535057116011",
    "COMMENT": "Grouped by shell and plane from TLE"
  }
]